OBJECT_NAME,OBJECT_ID,EPOCH,MEAN_MOTION,ECCENTRICITY,INCLINATION,RA_OF_ASC_NODE,ARG_OF_PERICENTER,MEAN_ANOMALY,EPHEMERIS_TYPE,CLASSIFICATION_TYPE,NORAD_CAT_ID,ELEMENT_SET_NO,REV_AT_EPOCH,BSTAR,MEAN_MOTION_DOT,MEAN_MOTION_DDOT
FLOCK 4Y-3,2023-001AC,2024-01-20T02:53:29.948928,15.23488451,.0012165,97.4480,82.8534,336.8128,23.2559,0,U,55035,999,5805,.67937E-3,.16189E-3,0
FLOCK 4Y-1,2023-001AG,2024-01-20T14:18:54.536256,15.26307045,.0008922,97.4500,83.7563,331.5764,28.4986,0,U,55039,999,5815,.98689E-3,.25628E-3,0
FLOCK 4Y-16,2023-001AH,2024-01-20T02:44:54.756960,15.23658436,.0009921,97.4531,83.1016,340.5968,19.4889,0,U,55040,999,5805,.72084E-3,.1726E-3,0
FLOCK 4Y-33,2023-001AK,2024-01-20T03:11:33.874080,15.23402803,.0009995,97.4482,82.8024,335.2848,24.7909,0,U,55042,999,5805,.67879E-3,.16124E-3,0
FLOCK 4Y-20,2023-001BG,2024-01-20T03:16:40.823040,15.23228974,.0012557,97.4534,83.0806,341.5433,18.5346,0,U,55063,999,5805,.64012E-3,.15133E-3,0
FLOCK 4Y-12,2023-001BJ,2024-01-20T14:10:14.449728,15.23407718,.001205,97.4536,83.5813,338.9714,21.1026,0,U,55065,999,5812,.66174E-3,.15728E-3,0
FLOCK 4Y-6,2023-001BK,2024-01-20T02:38:51.160704,15.23706616,.0011881,97.4537,83.0927,341.4213,18.6589,0,U,55066,999,5805,.71218E-3,.17085E-3,0
FLOCK 4Y-15,2023-001BM,2024-01-20T02:39:06.483744,15.23484009,.0012743,97.4468,82.8225,335.7672,24.2964,0,U,55068,999,5805,.7032E-3,.16762E-3,0
FLOCK 4Y-9,2023-001BN,2024-01-20T09:18:19.874592,15.23337218,.0012225,97.4521,83.2749,343.4018,16.6817,0,U,55069,999,5809,.66982E-3,.15889E-3,0
FLOCK 4Y-26,2023-001BP,2024-01-20T15:04:29.753760,15.23607842,.0012528,97.4508,83.4146,332.5755,27.4819,0,U,55070,999,5813,.68293E-3,.16335E-3,0
FLOCK 4Y-8,2023-001BQ,2024-01-20T03:00:24.220512,15.24151512,.0012643,97.4497,83.0402,338.6181,21.4526,0,U,55071,999,5806,.80537E-3,.196E-3,0
FLOCK 4Y-2,2023-001BT,2024-01-20T03:05:26.800224,15.23350614,.0012623,97.4517,83.0233,341.7894,18.2889,0,U,55074,999,5805,.69192E-3,.16425E-3,0
FLOCK 4Y-31,2023-001BU,2024-01-20T03:15:57.405312,15.30648251,.0011492,97.4458,83.8608,327.9740,32.0801,0,U,55075,999,5812,.14361E-2,.42744E-3,0
FLOCK 4Y-21,2023-001BW,2024-01-20T04:20:47.000256,15.23512480,.0012718,97.4525,83.1391,340.1304,19.9436,0,U,55077,999,5806,.72881E-3,.17391E-3,0
FLOCK 4Y-13,2023-001BY,2024-01-20T03:01:59.203488,15.23379025,.0012882,97.4514,83.0116,339.7697,20.3028,0,U,55079,999,5805,.69483E-3,.1651E-3,0
FLOCK 4Y-27,2023-001CC,2024-01-20T14:54:12.249504,15.24143948,.0013294,97.4504,83.6377,334.8771,25.1818,0,U,55083,999,5814,.70357E-3,.17107E-3,0
FLOCK 4Q-1,2023-174Q,2024-01-20T05:05:48.111360,15.14741153,.0012182,97.4779,96.9673,41.9398,318.2765,0,U,58270,999,1111,.44721E-3,.8241E-4,0
FLOCK 4Q-16,2023-174R,2024-01-20T03:36:06.128352,15.14621158,.0012108,97.4747,96.8663,42.9544,317.2631,0,U,58271,999,1110,.45161E-3,.8295E-4,0
FLOCK 4Q-11,2023-174T,2024-01-20T03:33:09.925920,15.14669347,.0011835,97.4766,96.8909,43.3374,316.8786,0,U,58273,999,1110,.45523E-3,.8373E-4,0
FLOCK 4Q-36,2023-174U,2024-01-20T04:50:05.597088,15.14976559,.0011286,97.4774,96.9829,38.5794,321.6242,0,U,58274,999,1111,.44513E-3,.8255E-4,0
FLOCK 4Q-12,2023-174V,2024-01-20T04:55:10.523424,15.15211697,.001126,97.4736,96.9383,39.9611,320.2448,0,U,58275,999,1111,.4655E-3,.8695E-4,0
FLOCK 4Q-19,2023-174Y,2024-01-20T04:58:47.575776,15.14876817,.0010504,97.4725,96.9221,39.6146,320.5852,0,U,58278,999,1111,.49053E-3,.9078E-4,0
FLOCK 4Q-8,2023-174Z,2024-01-20T12:56:50.481888,15.14765516,.0012374,97.4797,97.3112,39.8665,320.3474,0,U,58279,999,1116,.41671E-3,.768E-4,0
FLOCK 4Q-28,2023-174AA,2024-01-20T03:23:26.509920,15.14841126,.0011162,97.4778,96.9105,40.8669,319.3398,0,U,58280,999,1110,.47718E-3,.8821E-4,0
FLOCK 4Q-27,2023-174AC,2024-01-20T04:52:22.450368,15.14932698,.001033,97.4729,96.9309,35.3591,324.8324,0,U,58282,999,1111,.42383E-3,.7845E-4,0
