55035,FLOCK 4Y-3,2023,94.52,6.0,+,97.45,Active,1,LEO,USA,USA,Commercial,Earth Observation,Falcon,1 55035U 23001AC  24020.12048552  .00016189  00000+0  67937-3 0  9998,2 55035  97.4480  82.8534 0012165 336.8128  23.2559 15.23488451 58053,15.23488451,0.0012165,LEO
55039,FLOCK 4Y-1,2023,94.35,6.0,+,97.45,Active,1,LEO,USA,USA,Commercial,Earth Observation,Falcon,1 55039U 23001AG  24020.59646454  .00025628  00000+0  98689-3 0  9994,2 55039  97.4500  83.7563 0008922 331.5764  28.4986 15.26307045 58150,15.26307045,0.0008922,LEO
55040,FLOCK 4Y-16,2023,94.51,6.0,+,97.45,Active,1,LEO,USA,USA,Commercial,Earth Observation,Falcon,1 55040U 23001AH  24020.11452265  .00017260  00000+0  72084-3 0  9993,2 55040  97.4531  83.1016 0009921 340.5968  19.4889 15.23658436 58050,15.23658436,0.0009921,LEO
55042,FLOCK 4Y-33,2023,94.53,6.0,+,97.45,Active,1,LEO,USA,USA,Commercial,Earth Observation,Falcon,1 55042U 23001AK  24020.13303095  .00016124  00000+0  67879-3 0  9997,2 55042  97.4482  82.8024 0009995 335.2848  24.7909 15.23402803 58058,15.23402803,0.0009995,LEO
55063,FLOCK 4Y-20,2023,94.54,6.0,+,97.45,Active,1,LEO,USA,USA,Commercial,Earth Observation,Falcon,1 55063U 23001BG  24020.13658360  .00015133  00000+0  64012-3 0  9993,2 55063  97.4534  83.0806 0012557 341.5433  18.5346 15.23228974 58059,15.23228974,0.0012557,LEO
55065,FLOCK 4Y-12,2023,94.53,6.0,+,97.45,Active,1,LEO,USA,USA,Commercial,Earth Observation,Falcon,1 55065U 23001BJ  24020.59044502  .00015728  00000+0  66174-3 0  9993,2 55065  97.4536  83.5813 0012050 338.9714  21.1026 15.23407718 58124,15.23407718,0.001205,LEO
55066,FLOCK 4Y-6,2023,94.51,6.0,+,97.45,Active,1,LEO,USA,USA,Commercial,Earth Observation,Falcon,1 55066U 23001BK  24020.11031436  .00017085  00000+0  71218-3 0  9997,2 55066  97.4537  83.0927 0011881 341.4213  18.6589 15.23706616 58057,15.23706616,0.0011881,LEO
55068,FLOCK 4Y-15,2023,94.52,6.0,+,97.45,Active,1,LEO,USA,USA,Commercial,Earth Observation,Falcon,1 55068U 23001BM  24020.11049171  .00016762  00000+0  70320-3 0  9998,2 55068  97.4468  82.8225 0012743 335.7672  24.2964 15.23484009 58052,15.23484009,0.0012743,LEO
55069,FLOCK 4Y-9,2023,94.53,6.0,+,97.45,Active,1,LEO,USA,USA,Commercial,Earth Observation,Falcon,1 55069U 23001BN  24020.38773003  .00015889  00000+0  66982-3 0  9994,2 55069  97.4521  83.2749 0012225 343.4018  16.6817 15.23337218 58099,15.23337218,0.0012225,LEO
55070,FLOCK 4Y-26,2023,94.52,6.0,+,97.45,Active,1,LEO,USA,USA,Commercial,Earth Observation,Falcon,1 55070U 23001BP  24020.62812215  .00016335  00000+0  68293-3 0  9996,2 55070  97.4508  83.4146 0012528 332.5755  27.4819 15.23607842 58132,15.23607842,0.0012528,LEO
55071,FLOCK 4Y-8,2023,94.48,6.0,+,97.45,Active,1,LEO,USA,USA,Commercial,Earth Observation,Falcon,1 55071U 23001BQ  24020.12528033  .00019600  00000+0  80537-3 0  9997,2 55071  97.4497  83.0402 0012643 338.6181  21.4526 15.24151512 58069,15.24151512,0.0012643,LEO
55074,FLOCK 4Y-2,2023,94.53,6.0,+,97.45,Active,1,LEO,USA,USA,Commercial,Earth Observation,Falcon,1 55074U 23001BT  24020.12878241  .00016425  00000+0  69192-3 0  9995,2 55074  97.4517  83.0233 0012623 341.7894  18.2889 15.23350614 58059,15.23350614,0.0012623,LEO
55075,FLOCK 4Y-31,2023,94.08,6.0,+,97.45,Active,1,LEO,USA,USA,Commercial,Earth Observation,Falcon,1 55075U 23001BU  24020.13608108  .00042744  00000+0  14361-2 0  9990,2 55075  97.4458  83.8608 0011492 327.9740  32.0801 15.30648251 58128,15.30648251,0.0011492,LEO
55077,FLOCK 4Y-21,2023,94.52,6.0,+,97.45,Active,1,LEO,USA,USA,Commercial,Earth Observation,Falcon,1 55077U 23001BW  24020.18109954  .00017391  00000+0  72881-3 0  9994,2 55077  97.4525  83.1391 0012718 340.1304  19.9436 15.23512480 58069,15.2351248,0.0012718,LEO
55079,FLOCK 4Y-13,2023,94.53,6.0,+,97.45,Active,1,LEO,USA,USA,Commercial,Earth Observation,Falcon,1 55079U 23001BY  24020.12637967  .00016510  00000+0  69483-3 0  9996,2 55079  97.4514  83.0116 0012882 339.7697  20.3028 15.23379025 58052,15.23379025,0.0012882,LEO
55083,FLOCK 4Y-27,2023,94.48,6.0,+,97.45,Active,1,LEO,USA,USA,Commercial,Earth Observation,Falcon,1 55083U 23001CC  24020.62097511  .00017107  00000+0  70357-3 0  9996,2 55083  97.4504  83.6377 0013294 334.8771  25.1818 15.24143948 58142,15.24143948,0.0013294,LEO
58270,FLOCK 4Q-1,2023,95.07,-1.0,+,97.48,Active,0,LEO,USA,USA,Unknown,Unknown,PSLV,1 58270U 23174Q   24020.21236240  .00008241  00000+0  44721-3 0  9992,2 58270  97.4779  96.9673 0012182  41.9398 318.2765 15.14741153 11113,15.14741153,0.0012182,LEO
58271,FLOCK 4Q-16,2023,95.07,-1.0,+,97.47,Active,0,LEO,USA,USA,Unknown,Unknown,PSLV,1 58271U 23174R   24020.15007093  .00008295  00000+0  45161-3 0  9996,2 58271  97.4747  96.8663 0012108  42.9544 317.2631 15.14621158 11101,15.14621158,0.0012108,LEO
58273,FLOCK 4Q-11,2023,95.07,-1.0,+,97.48,Active,0,LEO,USA,USA,Unknown,Unknown,PSLV,1 58273U 23174T   24020.14803155  .00008373  00000+0  45523-3 0  9999,2 58273  97.4766  96.8909 0011835  43.3374 316.8786 15.14669347 11107,15.14669347,0.0011835,LEO
58274,FLOCK 4Q-36,2023,95.05,-1.0,+,97.48,Active,0,LEO,USA,USA,Unknown,Unknown,Falcon,1 58274U 23174U   24020.20145367  .00008255  00000+0  44513-3 0  9998,2 58274  97.4774  96.9829 0011286  38.5794 321.6242 15.14976559 11119,15.14976559,0.0011286,LEO
58275,FLOCK 4Q-12,2023,95.04,-1.0,+,97.47,Active,0,LEO,USA,USA,Unknown,Unknown,PSLV,1 58275U 23174V   24020.20498291  .00008695  00000+0  46550-3 0  9997,2 58275  97.4736  96.9383 0011260  39.9611 320.2448 15.15211697 11117,15.15211697,0.001126,LEO
58278,FLOCK 4Q-19,2023,95.06,-1.0,+,97.47,Active,0,LEO,USA,USA,Unknown,Unknown,PSLV,1 58278U 23174Y   24020.20749509  .00009078  00000+0  49053-3 0  9998,2 58278  97.4725  96.9221 0010504  39.6146 320.5852 15.14876817 11111,15.14876817,0.0010504,LEO
58279,FLOCK 4Q-8,2023,95.07,-1.0,+,97.48,Active,0,LEO,USA,USA,Unknown,Unknown,PSLV,1 58279U 23174Z   24020.53947317  .00007680  00000+0  41671-3 0  9997,2 58279  97.4797  97.3112 0012374  39.8665 320.3474 15.14765516 11166,15.14765516,0.0012374,LEO
58280,FLOCK 4Q-28,2023,95.06,-1.0,+,97.48,Active,0,LEO,USA,USA,Unknown,Unknown,Falcon,1 58280U 23174AA  24020.14127905  .00008821  00000+0  47718-3 0  9995,2 58280  97.4778  96.9105 0011162  40.8669 319.3398 15.14841126 11103,15.14841126,0.0011162,LEO
58282,FLOCK 4Q-27,2023,95.05,-1.0,+,97.47,Active,0,LEO,USA,USA,Unknown,Unknown,Falcon,1 58282U 23174AC  24020.20303762  .00007845  00000+0  42383-3 0  9999,2 58282  97.4729  96.9309 0010330  35.3591 324.8324 15.14932698 11112,15.14932698,0.001033,LEO
